OBJECT_NAME,OBJECT_ID,EPOCH,MEAN_MOTION,ECCENTRICITY,INCLINATION,RA_OF_ASC_NODE,ARG_OF_PERICENTER,MEAN_ANOMALY,EPHEMERIS_TYPE,CLASSIFICATION_TYPE,NORAD_CAT_ID,ELEMENT_SET_NO,REV_AT_EPOCH,BSTAR,MEAN_MOTION_DOT,MEAN_MOTION_DDOT
ICEYE-X5,2019-038C,2024-08-24T04:52:55.612416,15.16247886,.0016635,97.9218,233.9541,75.0765,285.2307,0,U,44389,999,28145,.12734E-2,.24707E-3,0
ICEYE-X4,2019-038D,2024-08-24T04:42:55.941120,15.11076247,.0019421,97.8964,227.5095,76.6572,283.6821,0,U,44390,999,28119,.79271E-3,.13271E-3,0
DOT-1,2019-038P,2024-08-23T12:24:57.773376,15.46907922,.0011952,97.7079,236.9570,201.7449,158.3294,0,U,44399,999,28463,.1175E-2,.5956E-3,0
SONATE,2019-038Q,2024-08-23T21:27:08.855136,15.38173854,.0013664,97.7150,234.2011,213.0202,147.0190,0,U,44400,999,28447,.88484E-3,.33382E-3,0
LUCKY-7,2019-038W,2024-08-23T17:44:06.296064,15.52207610,.0012139,97.7028,239.2914,186.0827,174.0279,0,U,44406,999,28481,.13023E-2,.79736E-3,0
MOMENTUS-X1,2019-038Y,2024-08-23T23:24:11.993184,15.29251012,.0014821,97.7194,229.4112,235.4737,124.5103,0,U,44408,999,28423,.62441E-3,.1772E-3,0
COSMOS 2538,2019-039D,2024-08-24T03:22:28.319520,15.08808492,.0054455,97.6639,303.2959,170.1753,190.0554,0,U,44424,999,27963,.68284E-3,.11058E-3,0
YAOGAN-30 06A,2019-045A,2024-08-24T02:58:32.994336,14.96052654,.0004556,34.9946,28.7800,273.9324,86.0861,0,U,44449,999,27718,.58469E-3,.6674E-4,0
YAOGAN-30 06B,2019-045B,2024-08-24T04:02:32.947296,14.96042419,.0008571,34.9938,28.0911,58.3470,301.8071,0,U,44450,999,27719,.5931E-3,.6772E-4,0
YAOGAN-30 06C,2019-045C,2024-08-24T03:30:44.589888,14.96032184,.0000308,34.9948,28.0689,345.1712,14.8985,0,U,44451,999,27715,.58725E-3,.6699E-4,0
MERIDIAN 8,2019-046A,2024-08-23T18:02:29.255136,2.00612565,.6800683,62.7175,129.9673,273.5155,17.3075,0,U,44453,999,3713,0,.107E-5,0
COSMOS 2539,2019-048A,2024-08-22T08:13:51.595392,1.00273224,.0000892,0.0152,121.4746,44.7307,300.3754,0,U,44457,999,1857,0,.73E-6,0
EDRS-C,2019-049A,2024-08-22T23:48:01.804320,1.00268364,.0000822,0.0929,255.6633,252.1430,212.1941,0,U,44475,999,1856,0,.146E-5,0
INTELSAT 39 (IS-39),2019-049B,2024-08-23T05:13:57.584640,1.00269885,.0000636,0.0234,120.8834,191.9567,159.5770,0,U,44476,999,1849,0,.26E-6,0
AMOS-17,2019-050A,2024-08-23T03:48:42.493824,1.00273108,.000225,0.0204,114.9630,62.8988,228.2505,0,U,44479,999,1853,0,.101E-5,0
AEHF-5 (USA 292),2019-051A,2024-08-23T13:41:46.290624,1.00430661,.0042679,2.5777,308.3407,12.3194,288.2253,0,U,44481,999,1861,0,-.96E-6,0
BRO-1,2019-054A,2024-08-23T21:31:50.462112,15.25517114,.0008913,45.0138,56.5228,195.5329,164.5281,0,U,44495,999,27721,.81186E-3,.20746E-3,0
PEARL WHITE 1,2019-054C,2024-08-24T02:45:53.048448,15.35051525,.001108,45.0061,29.8313,242.2525,117.7238,0,U,44497,999,27749,.11552E-2,.4005E-3,0
PEARL WHITE 2,2019-054D,2024-08-23T20:04:54.691968,15.38236245,.0010763,45.0168,24.7919,237.9599,122.0243,0,U,44498,999,27755,.12867E-2,.49565E-3,0
GLOBAL-4,2019-054E,2024-08-23T18:43:31.751040,15.33458419,.0010619,45.0174,347.6413,250.3554,109.6186,0,U,44499,999,27798,.83675E-3,.27429E-3,0
NAVSTAR 78 (USA 293),2019-056A,2024-08-23T12:21:31.197888,2.00572202,.0045858,55.8377,357.4226,190.0453,156.8281,0,U,44506,999,3677,0,-.92E-6,0
COSMOS 2540,2019-057A,2024-08-24T04:17:34.336896,13.85892825,.0016673,99.2379,248.0981,127.7042,232.5628,0,U,44517,999,25217,.78152E-4,.46E-6,0
XIAOXIANG 1-07,2019-058A,2024-08-24T04:54:26.516448,15.25050220,.0005203,97.7769,258.6945,355.1023,5.0162,0,U,44519,999,27206,.26788E-2,.67442E-3,0
KX-09,2019-058B,2024-08-24T03:55:52.292352,14.93154250,.00119,97.7919,243.9490,39.5071,320.7013,0,U,44520,999,27110,.37551E-3,.3867E-4,0
ZY-1 02D,2019-059A,2024-08-24T05:12:16.829280,14.35382439,.0000882,98.4056,307.9237,28.3571,331.7663,0,U,44528,999,25937,.2016E-3,.536E-5,0
BNU-1 (JINGSHI 1),2019-059B,2024-08-24T04:59:30.422400,14.46777600,.0012864,98.5428,346.4433,212.4354,147.6048,0,U,44529,999,26120,.4785E-3,.1689E-4,0
TAURUS-1 (JINNIUZUO 1),2019-059C,2024-08-24T04:54:14.093856,14.56848671,.0011475,98.5814,359.2533,204.4898,155.5755,0,U,44530,999,26166,.30124E-2,.13486E-3,0
ZHUHAI-1 03A,2019-060A,2024-08-24T04:35:45.081600,15.30447820,.0014035,97.5000,6.2669,143.0858,217.1351,0,U,44534,999,27449,.11965E-2,.3538E-3,0
ZHUHAI-1 03B,2019-060C,2024-08-24T04:29:37.881600,15.31191219,.0016283,97.4929,7.4823,184.8691,175.2394,0,U,44536,999,27456,.11672E-2,.35352E-3,0
ZHUHAI-1 03C,2019-060D,2024-08-24T04:39:59.253120,15.31244741,.0013617,97.5182,7.6726,183.4147,176.7003,0,U,44537,999,27467,.1148E-2,.34782E-3,0
ZHUHAI-1 03D,2019-060E,2024-08-24T04:51:34.483680,15.28259685,.001605,97.4760,5.1956,155.5329,204.6675,0,U,44538,999,27458,.11634E-2,.32179E-3,0
ZHUHAI-1 03E,2019-060F,2024-08-24T04:17:12.814656,15.27318690,.0021974,97.5007,6.2072,179.1171,181.0110,0,U,44539,999,27445,.11821E-2,.31877E-3,0
BEIDOU-3 M24,2019-061A,2024-08-23T02:28:12.011520,1.86229257,.0008303,54.4391,205.0983,346.7637,13.1805,0,U,44542,999,3344,0,.59E-6,0
BEIDOU-3 M23,2019-061B,2024-08-23T12:45:16.530912,1.86229280,.000567,54.4376,205.0524,328.7982,230.9904,0,U,44543,999,3345,0,.61E-6,0
YUNHAI-1 02,2019-063A,2024-08-24T03:43:37.010208,14.33121239,.0006761,98.4424,254.7203,354.9159,5.1956,0,U,44547,999,25706,.2509E-3,.646E-5,0
COSMOS 2541,2019-065A,2024-08-23T06:57:09.622944,2.00603295,.6586432,62.7763,218.9401,272.6501,19.2860,0,U,44552,999,3592,0,-.265E-5,0
GAOFEN-10R,2019-066A,2024-08-24T03:45:59.350752,14.81922248,.0003243,97.9668,178.7619,90.5973,269.5611,0,U,44622,999,26428,.47615E-3,.3719E-4,0
EUTELSAT 5 WEST B,2019-067A,2024-08-23T09:02:39.376032,1.00271947,.0003146,0.0877,311.9262,203.5659,307.3240,0,U,44624,999,1780,0,-.5E-6,0
MEV-1,2019-067B,2024-08-23T09:47:37.745664,1.00273374,.0000472,0.0494,276.8834,264.1403,270.5637,0,U,44625,999,1768,0,-.21E-5,0
PALISADE,2019-069A,2024-08-24T04:28:35.015232,13.11871778,.0010614,87.8856,51.3523,51.0023,309.2049,0,U,44634,999,23248,.31619E-3,.126E-5,0
TJS-4,2019-070A,2024-08-21T03:15:42.516000,1.00268252,.0003989,0.0554,272.2045,74.7530,115.3390,0,U,44637,999,1787,0,-.176E-5,0
GAOFEN-7,2019-072A,2024-08-24T04:59:01.832640,15.20924552,.0001357,97.3291,308.8679,185.6863,174.4357,0,U,44703,999,26699,.52364E-3,.11527E-3,0
BEIDOU-3 IGSO-3,2019-073A,2024-08-22T13:09:46.249344,1.00282506,.004134,55.9358,288.0245,189.9042,170.1269,0,U,44709,999,1780,0,-.167E-5,0
STARLINK-1007,2019-074A,2024-08-23T14:00:01.000224,15.78432622,.0003661,53.0488,173.8618,133.8654,259.9517,0,U,44713,999,602,.10709E-2,.192836E-2,0
STARLINK-1008,2019-074B,2024-08-23T14:51:01.664928,15.06386591,.0001548,53.0539,194.3417,95.5659,264.5507,0,U,44714,999,26405,-.16763E-4,-.531E-5,0
STARLINK-1009,2019-074C,2024-08-23T14:35:04.028928,15.06385954,.0001341,53.0524,194.3910,107.4278,252.6857,0,U,44715,999,26387,.67787E-3,.9826E-4,0
STARLINK-1010,2019-074D,2024-08-23T03:52:50.630304,15.06394655,.000183,53.0539,196.3853,105.9923,254.1268,0,U,44716,999,26379,-.49178E-5,-.355E-5,0
STARLINK-1011,2019-074E,2024-08-24T05:18:48.427776,15.06397485,.000163,53.0533,211.6360,90.8402,269.2773,0,U,44717,999,26386,-.10959E-3,-.1913E-4,0
STARLINK-1012,2019-074F,2024-08-24T04:39:00.444096,15.06404514,.000144,53.0544,191.7620,94.8825,265.2329,0,U,44718,999,26413,.77366E-4,.871E-5,0
STARLINK-1013,2019-074G,2024-08-23T14:29:46.317984,15.06394551,.0001383,53.0527,194.4096,86.7749,273.3398,0,U,44719,999,26404,.92624E-4,.1098E-4,0
STARLINK-1014,2019-074H,2024-08-23T13:41:55.186368,15.12490356,.0002355,53.0541,190.5436,104.4488,255.6766,0,U,44720,999,26393,.89356E-3,.15468E-3,0
STARLINK-1015,2019-074J,2024-08-23T13:52:39.996480,15.06418091,.0001941,53.0538,194.8678,91.7117,268.4094,0,U,44721,999,26386,.54017E-3,.7777E-4,0
STARLINK-1017,2019-074L,2024-08-24T03:51:13.676544,15.06412377,.0001478,53.0547,191.9104,92.8233,267.2925,0,U,44723,999,26413,.28071E-3,.3903E-4,0
STARLINK-1019,2019-074M,2024-08-24T04:33:41.329152,15.06412631,.0001248,53.0543,191.7775,94.1411,265.9721,0,U,44724,999,26413,.28309E-4,.14E-5,0
STARLINK-1020,2019-074N,2024-08-24T04:41:39.594624,15.06406597,.0001471,53.0531,211.7543,82.0797,278.0359,0,U,44725,999,26385,.18168E-4,-.11E-6,0
STARLINK-1021,2019-074P,2024-08-24T04:28:22.853568,15.06412490,.0001491,53.0544,191.7953,99.9999,260.1158,0,U,44726,999,26413,.26885E-3,.3727E-4,0
STARLINK-1027,2019-074V,2024-08-23T07:43:42.318048,15.06389829,.0001344,53.0533,215.6835,99.0449,261.0692,0,U,44732,999,26355,-.14567E-3,-.245E-4,0
STARLINK-1028,2019-074W,2024-08-24T04:23:04.848000,15.06406361,.0001388,53.0534,191.8119,98.6984,261.4162,0,U,44733,999,26413,.21471E-3,.2919E-4,0
STARLINK-1029,2019-074X,2024-08-23T22:22:09.821568,15.06416677,.0001325,53.0538,112.9337,89.9072,270.2068,0,U,44734,999,26519,.27859E-3,.3872E-4,0
STARLINK-1030,2019-074Y,2024-08-23T15:52:03.006624,15.06390317,.0001498,53.0526,214.1501,91.1853,268.9307,0,U,44735,999,26377,-.14956E-3,-.2508E-4,0
STARLINK-1031,2019-074Z,2024-08-24T04:57:35.074944,15.06404869,.0001471,53.0533,211.7032,94.9742,265.1415,0,U,44736,999,26386,.14809E-3,.1925E-4,0
STARLINK-1032,2019-074AA,2024-08-24T05:13:30.734976,15.06400130,.0001508,53.0532,211.6506,95.7393,264.3767,0,U,44737,999,26386,.12077E-3,.1518E-4,0
STARLINK-1035,2019-074AD,2024-08-23T05:15:07.020864,15.06394604,.0001642,53.0549,216.1405,121.4793,238.6356,0,U,44740,999,26354,.32937E-4,.209E-5,0
STARLINK-1036,2019-074AE,2024-08-23T05:31:01.939584,15.06398703,.0001379,53.0529,216.0857,89.2853,270.8294,0,U,44741,999,26354,-.41622E-4,-.901E-5,0
STARLINK-1038,2019-074AG,2024-08-23T06:42:41.981184,15.06402851,.0001643,53.0528,235.8616,96.5680,263.5496,0,U,44743,999,26336,-.23042E-4,-.625E-5,0
STARLINK-1039,2019-074AH,2024-08-23T06:58:36.431616,15.06394411,.0001474,53.0520,235.8158,87.9436,272.1721,0,U,44744,999,26327,-.1584E-3,-.264E-4,0
STARLINK-1041,2019-074AK,2024-08-23T22:00:00.999936,15.89068363,.000633,53.0459,184.1363,96.0739,278.0973,0,U,44746,999,26419,.10949E-2,.332415E-2,0
STARLINK-1042,2019-074AL,2024-08-23T09:05:50.405568,15.20352785,.0000319,53.0549,223.6543,205.9690,154.1289,0,U,44747,999,26346,.75952E-3,.1645E-3,0
